MEAN_MOTION;ECCENTRICITY;INCLINATION;RA_OF_ASC_NODE;ARG_OF_PERICENTER;MEAN_ANOMALY;BSTAR;MEAN_MOTION_DOT;MEAN_MOTION_DDOT;TYPE
12.40585807;0.0001298;51.9715;242.8784;125.3643;336.3279;-4.3539E-5;-1.03E-6;0;Globalstar
12.40585794;0.000129;51.9715;240.3045;126.5421;306.0253;-3.8564E-5;-1.03E-6;0;Globalstar
12.40585797;0.0001286;51.9715;239.308;127.3215;27.1053;-3.2662E-5;-1.02E-6;0;Globalstar
12.40585788;0.0001275;51.9716;236.4847;129.2096;17.0951;-3.0391E-5;-1.01E-6;0;Globalstar
12.40585744;0.0001271;51.9716;234.3965;130.6507;324.5573;-5.8764E-5;-1.05E-6;0;Globalstar
12.40585719;0.0001269;51.9716;233.4107;131.619;29.1577;-7.622E-5;-1.08E-6;0;Globalstar
12.40585714;0.0001268;51.9716;233.2064;131.7813;340.9348;-7.9508E-5;-1.08E-6;0;Globalstar
12.40585636;0.0001259;51.9717;231.6098;132.8446;258.2329;-0.00013704;-1.16E-6;0;Globalstar
12.40585486;0.0001247;51.9718;228.7737;136.1171;266.2646;-0.00025058;-1.31E-6;0;Globalstar
12.40585344;0.0001235;51.9718;227.5129;136.9173;31.1138;-0.00035789;-1.46E-6;0;Globalstar
12.40585308;0.0001228;51.9719;224.6853;138.5248;27.922;-0.00033064;-1.42E-6;0;Globalstar
12.40585352;0.0001216;51.972;222.6205;141.1629;298.642;-0.00026484;-1.33E-6;0;Globalstar
12.40585301;0.00012;51.9721;219.3019;142.9189;325.2895;-0.00024625;-1.31E-6;0;Globalstar
12.40585285;0.0001194;51.9722;215.9808;144.4943;355.8096;-0.00018562;-1.22E-6;0;Globalstar
12.40585118;0.0001183;51.9722;213.138;146.3707;15.5928;-0.00031316;-1.4E-6;0;Globalstar
12.40585018;0.0001165;51.9723;212.021;146.7859;281.3507;-0.00042477;-1.55E-6;0;Globalstar
12.40584995;0.0001164;51.9723;211.0704;147.6813;292.1175;-0.00042382;-1.54E-6;0;Globalstar
12.4058497;0.0001146;51.9723;208.2265;150.0128;313.1871;-0.00029226;-1.37E-6;0;Globalstar
12.40584971;0.0001145;51.9723;208.0143;150.2259;277.1128;-0.00028855;-1.36E-6;0;Globalstar
12.40584956;0.0001143;51.9723;207.7536;150.3914;315.0975;-0.00029304;-1.37E-6;0;Globalstar
12.40584894;0.0001123;51.9724;204.9281;152.4476;308.3888;-0.00026421;-1.33E-6;0;Globalstar
12.40584886;0.0001123;51.9724;204.6571;152.6094;2.1283;-0.00026667;-1.33E-6;0;Globalstar
12.40584846;0.0001105;51.9724;202.349;154.5109;285.3731;-0.00024381;-1.3E-6;0;Globalstar
12.40584781;0.0001083;51.9724;199.5207;156.6883;282.7737;-0.00023477;-1.29E-6;0;Globalstar
12.40584811;0.0001075;51.9724;198.5303;157.3684;354.7013;-0.00017482;-1.21E-6;0;Globalstar
12.40584801;0.0001062;51.9725;196.4776;159.0767;248.0745;-0.00015024;-1.18E-6;0;Globalstar
12.40584816;0.0001051;51.9725;195.7095;159.5955;340.6266;-0.00012416;-1.14E-6;0;Globalstar
12.40584835;0.0001035;51.9725;193.3789;161.7753;298.1074;-8.2203E-5;-1.08E-6;0;Globalstar
12.40584832;0.0001015;51.9725;190.5723;163.7805;262.5927;-5.1505E-5;-1.04E-6;0;Globalstar
12.40584825;9.96E-5;51.9725;187.9714;165.9805;272.824;-4.9212E-5;-1.04E-6;0;Globalstar
12.40584867;9.72E-5;51.9724;184.9046;168.2954;274.3825;-1.0778E-5;-9.9E-7;0;Globalstar
12.40584869;9.7E-5;51.9724;184.6564;168.6315;293.2277;-6.2603E-6;-9.8E-7;0;Globalstar
12.40584881;9.5E-5;51.9724;181.8253;171.087;294.6598;8.1979E-6;-9.6E-7;0;Globalstar
12.40584912;9.29E-5;51.972;178.7725;173.0393;275.5126;0.00020646;-7.0E-7;0;Globalstar
12.40584924;9.22E-5;51.972;178.2599;173.5628;337.9277;0.00021514;-6.8E-7;0;Globalstar
12.40585001;8.98E-5;51.972;175.4383;176.2621;324.7349;0.0002574;-6.3E-7;0;Globalstar
12.40585063;8.87E-5;51.972;173.1075;178.7413;282.0915;0.00027001;-6.1E-7;0;Globalstar
12.40585148;8.68E-5;51.9719;170.0499;182.0918;268.5833;0.00024906;-6.4E-7;0;Globalstar
12.40585199;8.48E-5;51.9718;167.225;185.0388;260.2748;0.00018388;-7.3E-7;0;Globalstar
12.40585269;8.27E-5;51.9717;164.6326;187.7851;256.7882;0.00015611;-7.6E-7;0;Globalstar
12.40585285;8.26E-5;51.9717;164.3854;187.911;274.3521;0.00016768;-7.5E-7;0;Globalstar
12.40585419;8.02E-5;51.9715;161.3261;191.3866;263.2126;0.00020557;-7.0E-7;0;Globalstar
12.4058555;7.7E-5;51.9713;157.9899;195.431;314.4295;0.00025195;-6.3E-7;0;Globalstar
12.40585646;7.49E-5;51.9711;155.1668;198.9479;302.3242;0.00030752;-5.6E-7;0;Globalstar
12.40585691;7.32E-5;51.971;152.6025;201.829;255.5798;0.00033186;-5.3E-7;0;Globalstar
12.40585786;7.08E-5;51.9709;149.4929;205.7648;320.5115;0.00040009;-4.3E-7;0;Globalstar
12.40585819;6.82E-5;51.9709;146.4382;210.1923;301.194;0.00038209;-4.6E-7;0;Globalstar
12.40585861;6.63E-5;51.9708;143.8448;213.4219;298.65;0.00037221;-4.7E-7;0;Globalstar
12.405859;6.53E-5;51.9708;141.7541;216.3447;248.5412;0.00034064;-5.1E-7;0;Globalstar
12.40585905;6.4E-5;51.9708;140.5438;219.2476;294.0164;0.00031801;-5.5E-7;0;Globalstar
12.40585922;6.24E-5;51.9708;137.9429;222.7305;302.723;0.00024112;-6.5E-7;0;Globalstar
12.40585929;6.2E-5;51.9708;137.7178;223.4088;285.7647;0.00023559;-6.6E-7;0;Globalstar
12.40585921;6.03E-5;51.9708;134.8938;228.0816;273.9688;0.00012499;-8.1E-7;0;Globalstar
12.40585872;5.92E-5;51.9707;132.0676;231.9089;266.2733;-2.2725E-6;-9.8E-7;0;Globalstar
12.4058585;5.86E-5;51.9707;130.2523;234.392;156.023;-7.1578E-5;-1.07E-6;0;Globalstar
12.405858;5.78E-5;51.9712;129.2423;236.0112;256.7409;-9.4853E-6;-9.9E-7;0;Globalstar
12.40585783;5.71E-5;51.9712;127.1565;239.2891;198.7874;-3.4653E-5;-1.02E-6;0;Globalstar
12.40585781;5.69E-5;51.9712;126.6787;240.1428;207.7256;-3.3268E-5;-1.02E-6;0;Globalstar
12.40585759;5.6E-5;51.9713;123.8394;244.318;219.637;-6.4458E-5;-1.06E-6;0;Globalstar
12.4058577;5.57E-5;51.9713;123.3442;245.2725;254.9882;-5.3142E-5;-1.05E-6;0;Globalstar
12.40585718;5.53E-5;51.9713;120.5185;249.3737;246.3223;-0.00010034;-1.11E-6;0;Globalstar
12.40585716;5.53E-5;51.9713;120.2712;249.8343;263.4986;-0.00010305;-1.11E-6;0;Globalstar
12.40585603;5.4E-5;51.9714;117.4457;254.7612;253.7452;-0.0001842;-1.22E-6;0;Globalstar
12.40585543;5.28E-5;51.9715;114.8412;259.3115;266.7872;-0.00022324;-1.27E-6;0;Globalstar
12.40585491;5.24E-5;51.9716;112.8003;262.7784;140.1104;-0.00024993;-1.31E-6;0;Globalstar
12.40585494;5.19E-5;51.9716;111.7949;264.8402;233.5809;-0.00023078;-1.28E-6;0;Globalstar
12.40585479;5.21E-5;51.9717;109.7116;268.0465;172.0066;-0.00021722;-1.27E-6;0;Globalstar
12.40585478;5.15E-5;51.9718;107.3953;272.7813;104.7139;-0.00018022;-1.22E-6;0;Globalstar
12.40585522;4.85E-5;51.9719;105.8933;277.4401;233.9706;-9.4869E-5;-1.1E-6;0;Globalstar
12.40585526;4.91E-5;51.9719;104.5611;279.3743;106.5648;-8.7725E-5;-1.09E-6;0;Globalstar
12.40585512;4.94E-5;51.9721;102.8229;282.3989;238.2052;-8.8519E-5;-1.09E-6;0;Globalstar
12.40585512;4.94E-5;51.9721;102.8229;282.3989;238.2052;-8.8519E-5;-1.09E-6;0;Globalstar
12.4058522;4.88E-5;51.9723;99.9969;287.6281;228.7876;-0.00034565;-1.44E-6;0;Globalstar
12.40585133;4.79E-5;51.9724;98.1609;291.7002;148.8643;-0.00037332;-1.48E-6;0;Globalstar
12.40584958;4.95E-5;51.9724;97.1727;292.7116;216.9877;-0.00052996;-1.69E-6;0;Globalstar
12.40584891;4.95E-5;51.9725;95.8447;295.3273;82.5935;-0.0005413;-1.7E-6;0;Globalstar
12.40584864;5.02E-5;51.9726;95.103;295.6158;135.086;-0.00054671;-1.71E-6;0;Globalstar
12.40584811;4.93E-5;51.9726;94.3427;296.8046;214.9373;-0.00058946;-1.77E-6;0;Globalstar
12.4058473;5.03E-5;51.9728;92.0168;301.2924;162.7245;-0.00057028;-1.74E-6;0;Globalstar
12.40584769;5.0E-5;51.9728;91.5223;302.669;196.6172;-0.00051195;-1.66E-6;0;Globalstar
12.40584918;5.07E-5;51.973;88.448;307.5116;207.0873;-0.0002511;-1.31E-6;0;Globalstar
12.4058501;5.2E-5;51.9732;84.2857;313.8898;77.7751;-8.6961E-5;-1.09E-6;0;Globalstar
12.40584978;5.17E-5;51.9733;83.029;316.9992;193.8912;-0.00010907;-1.12E-6;0;Globalstar
12.40584938;5.2E-5;51.9735;80.4682;321.4174;140.6714;-0.00013229;-1.15E-6;0;Globalstar
12.40584928;5.23E-5;51.9735;79.7257;323.0581;192.9537;-0.00013889;-1.16E-6;0;Globalstar
12.40584926;5.36E-5;51.9737;77.3747;325.5758;181.2197;-0.00012814;-1.15E-6;0;Globalstar
12.40584942;5.37E-5;51.9737;76.9009;326.2482;184.0821;-0.00010684;-1.12E-6;0;Globalstar
12.40584942;5.42E-5;51.9738;75.3285;328.6095;63.3022;-9.5681E-5;-1.1E-6;0;Globalstar
12.40584945;5.46E-5;51.9737;74.0705;331.7291;180.9876;3.5957E-6;-9.7E-7;0;Globalstar
12.40584948;5.52E-5;51.9738;72.505;333.8842;49.8343;-9.8654E-6;-9.9E-7;0;Globalstar
12.40584953;5.58E-5;51.9739;71.2503;335.6182;164.4662;5.0933E-6;-9.7E-7;0;Globalstar
12.40584928;5.69E-5;51.9741;68.6524;339.4647;168.491;-3.7396E-5;-1.02E-6;0;Globalstar
12.40584935;5.8E-5;51.9742;66.6074;341.5861;49.8888;-6.9315E-5;-1.07E-6;0;Globalstar
12.40584937;5.88E-5;51.9743;65.3526;342.6476;165.4036;-7.3034E-5;-1.07E-6;0;Globalstar
12.40584943;5.95E-5;51.9744;63.7816;344.0602;43.3393;-8.9165E-5;-1.09E-6;0;Globalstar
12.40584941;6.13E-5;51.9745;60.6861;347.0585;88.3613;-9.0991E-5;-1.1E-6;0;Globalstar
12.40584938;6.16E-5;51.9746;60.1973;347.7009;114.2212;-7.9107E-5;-1.08E-6;0;Globalstar
12.40584971;6.29E-5;51.9747;57.8882;350.8607;37.7929;-4.3735E-5;-1.03E-6;0;Globalstar
12.40584954;6.32E-5;51.9747;57.1383;351.6648;102.4297;-3.6806E-5;-1.02E-6;0;Globalstar
12.40584946;6.49E-5;51.9748;54.791;353.6511;85.4893;-3.2664E-5;-1.02E-6;0;Globalstar
12.4058495;6.56E-5;51.9748;53.8007;354.9918;156.7352;-6.6544E-6;-9.8E-7;0;Globalstar
12.40584933;6.61E-5;51.9749;51.964;356.9713;79.9011;-1.4833E-5;-9.9E-7;0;Globalstar
12.40584926;6.73E-5;51.9749;50.9784;358.0196;144.2719;3.3071E-6;-9.7E-7;0;Globalstar
12.40584896;6.81E-5;51.975;49.1375;0.0898;73.9058;-1.4492E-5;-9.9E-7;0;Globalstar
12.40584932;6.82E-5;51.9752;48.8982;359.3059;80.5242;-5.0158E-5;-1.04E-6;0;Globalstar
12.40584912;6.98E-5;51.9751;46.0695;2.7247;77.2106;2.9359E-5;-9.3E-7;0;Globalstar
12.40584912;7.03E-5;51.9751;45.3058;3.6063;162.8816;4.4374E-5;-9.1E-7;0;Globalstar
12.40584913;7.09E-5;51.9751;45.0815;3.3089;145.7771;4.217E-5;-9.2E-7;0;Globalstar
12.40584931;7.2E-5;51.9752;43.263;4.4368;42.0306;4.6246E-5;-9.1E-7;0;Globalstar
12.40584927;7.34E-5;51.9752;42.2516;5.3987;145.9959;5.0836E-5;-9.1E-7;0;Globalstar
12.40584934;7.43E-5;51.9752;40.4161;6.6422;68.2148;3.8669E-5;-9.2E-7;0;Globalstar
12.40584917;7.62E-5;51.9752;37.5781;8.2561;81.3629;3.291E-6;-9.7E-7;0;Globalstar
12.40584921;7.63E-5;51.9752;37.3483;8.3177;72.2624;1.1146E-5;-9.6E-7;0;Globalstar
